H1 CPF 01  gfz 2021 04 15 12  6052 tandemx   
H2 1003001  6202 36605    2021 04 15 12 59 42 2021 04 20 00 00 42   120 1 1  0 0 0
H9
10 0 59319  63342.000000  0     759932.579    978371.179  -6783240.740
10 0 59319  63462.000000  0    1659677.886   1041292.810  -6611160.528
10 0 59319  63582.000000  0    2531485.442   1070678.009  -6323755.804
10 0 59319  63702.000000  0    3359643.105   1066633.197  -5925975.863
10 0 59319  63822.000000  0    4129175.863   1030108.899  -5424682.572
10 0 59319  63942.000000  0    4826116.054    962869.889  -4828543.740
10 0 59319  64062.000000  0    5437761.432    867447.502  -4147894.890
10 0 59319  64182.000000  0    5952914.235    747074.267  -3394569.906
10 0 59319  64302.000000  0    6362096.170    605601.766  -2581703.570
10 0 59319  64422.000000  0    6657735.647    447403.885  -1723507.984
10 0 59319  64542.000000  0    6834321.294    277266.669   -835024.163
10 0 59319  64662.000000  0    6888514.989    100267.695     68144.996
10 0 59319  64782.000000  0    6819223.608    -78351.523    970114.018
10 0 59319  64902.000000  0    6627626.605   -253318.393   1855002.362
10 0 59319  65022.000000  0    6317157.440   -419462.704   2707223.524
10 0 59319  65142.000000  0    5893438.216   -571847.854   3511768.644
10 0 59319  65262.000000  0    5364170.396   -705895.679   4254476.453
10 0 59319  65382.000000  0    4738987.367   -817502.336   4922286.642
10 0 59319  65502.000000  0    4029268.128   -903142.951   5503470.991
10 0 59319  65622.000000  0    3247919.746   -959960.376   5987836.600
10 0 59319  65742.000000  0    2409134.409   -985838.660   6366900.255
10 0 59319  65862.000000  0    1528125.917   -979458.969   6634031.257
10 0 59319  65982.000000  0     620849.410   -940337.274   6784562.737
10 0 59319  66102.000000  0    -296290.303   -868842.234   6815867.394
10 0 59319  66222.000000  0   -1206735.061   -766193.975   6727399.191
10 0 59319  66342.000000  0   -2094070.905   -634443.365   6520701.869
10 0 59319  66462.000000  0   -2942322.444   -476431.824   6199383.698
10 0 59319  66582.000000  0   -3736240.672   -295732.528   5769059.732
10 0 59319  66702.000000  0   -4461580.635    -96574.069   5237260.184
10 0 59319  66822.000000  0   -5105363.216    116252.317   4613304.515
10 0 59319  66942.000000  0   -5656115.323    337499.895   3908142.784
10 0 59319  67062.000000  0   -6104083.221    561586.570   3134166.350
10 0 59319  67182.000000  0   -6441415.073    782725.233   2304991.714
10 0 59319  67302.000000  0   -6662308.299    995061.427   1435218.855
10 0 59319  67422.000000  0   -6763117.627   1192814.429    540169.229
10 0 59319  67542.000000  0   -6742420.208   1370418.891   -364392.276
10 0 59319  67662.000000  0   -6601034.665   1522662.931  -1262544.465
10 0 59319  67782.000000  0   -6341994.887   1644818.605  -2138498.232
10 0 59319  67902.000000  0   -5970481.002   1732763.174  -2976881.414
10 0 59319  68022.000000  0   -5493706.543   1783086.843  -3763015.105
10 0 59319  68142.000000  0   -4920765.927   1793183.477  -4483172.258
10 0 59319  68262.000000  0   -4262448.513   1761323.680  -5124814.369
10 0 59319  68382.000000  0   -3531024.133   1686708.489  -5676802.616
10 0 59319  68502.000000  0   -2740006.685   1569503.138  -6129581.313
10 0 59319  68622.000000  0   -1903899.845   1410850.051  -6475332.986
10 0 59319  68742.000000  0   -1037928.634   1212861.755  -6708101.499
10 0 59319  68862.000000  0    -157764.818    978593.225  -6823883.012
10 0 59319  68982.000000  0     720750.095    711995.437  -6820686.544
10 0 59319  69102.000000  0    1581882.377    417850.225  -6698566.711
10 0 59319  69222.000000  0    2410282.592    101686.304  -6459623.066
10 0 59319  69342.000000  0    3191253.163   -230321.209  -6107967.858
10 0 59319  69462.000000  0    3911006.183   -571467.052  -5649662.219
10 0 59319  69582.000000  0    4556905.049   -914646.045  -5092621.615
10 0 59319  69702.000000  0    5117690.260  -1252495.979  -4446491.907
10 0 59319  69822.000000  0    5583683.234  -1577550.517  -3722493.040
10 0 59319  69942.000000  0    5946963.201  -1882398.759  -2933233.268
10 0 59319  70062.000000  0    6201513.442  -2159848.729  -2092495.634
10 0 59319  70182.000000  0    6343332.391  -2403090.893  -1214999.505
10 0 59319  70302.000000  0    6370506.461  -2605857.189   -316141.847
10 0 59319  70422.000000  0    6283242.385  -2762572.099    588277.440
10 0 59319  70542.000000  0    6083857.435  -2868491.214   1482340.477
10 0 59319  70662.000000  0    5776726.645  -2919823.795   2350301.277
10 0 59319  70782.000000  0    5368187.301  -2913836.162   3176871.779
10 0 59319  70902.000000  0    4866404.586  -2848932.340   3947499.041
10 0 59319  71022.000000  0    4281202.062  -2724710.066   4648625.223
10 0 59319  71142.000000  0    3623863.354  -2541993.129   5267928.807
10 0 59319  71262.000000  0    2906905.347  -2302837.579   5794541.483
10 0 59319  71382.000000  0    2143832.239  -2010511.247   6219234.668
10 0 59319  71502.000000  0    1348875.832  -1669449.015   6534575.955
10 0 59319  71622.000000  0     536726.317  -1285184.331   6735053.376
10 0 59319  71742.000000  0    -277741.136   -864257.875   6817165.814
10 0 59319  71862.000000  0   -1079738.500   -414105.210   6779479.520
10 0 59319  71982.000000  0   -1854832.139     57074.346   6622651.341
10 0 59319  72102.000000  0   -2589201.508    540466.673   6349418.117
10 0 59319  72222.000000  0   -3269885.586   1026806.845   5964552.401
10 0 59319  72342.000000  0   -3885013.597   1506555.562   5474784.782
10 0 59319  72462.000000  0   -4424016.844   1970085.481   4888692.823
10 0 59319  72582.000000  0   -4877817.357   2407874.515   4216556.390
10 0 59319  72702.000000  0   -5238987.832   2810702.163   3470180.702
10 0 59319  72822.000000  0   -5501880.216   3169843.741   2662690.915
10 0 59319  72942.000000  0   -5662720.665   3477259.158   1808301.347
10 0 59319  73062.000000  0   -5719668.483   3725772.304    922061.467
10 0 59319  73182.000000  0   -5672834.634   3909234.288     19583.160
10 0 59319  73302.000000  0   -5524261.060   4022667.110   -883242.637
10 0 59319  73422.000000  0   -5277861.659   4062384.490  -1770532.971
10 0 59319  73542.000000  0   -4939324.566   4026086.719  -2626703.990
10 0 59319  73662.000000  0   -4515978.271   3912925.506  -3436750.798
10 0 59319  73782.000000  0   -4016627.159   3723538.708  -4186513.405
10 0 59319  73902.000000  0   -3451361.388   3460055.230  -4862922.524
10 0 59319  74022.000000  0   -2831346.145   3126070.188  -5454221.540
10 0 59319  74142.000000  0   -2168597.512   2726592.466  -5950161.954
10 0 59319  74262.000000  0   -1475746.595   2267965.383  -6342171.749
10 0 59319  74382.000000  0    -765797.884   1757761.556  -6623491.404
10 0 59319  74502.000000  0     -51888.026   1204656.485  -6789279.032
10 0 59319  74622.000000  0     652951.937    618281.617  -6836684.361
10 0 59319  74742.000000  0    1336028.502      9060.078  -6764893.932
10 0 59319  74862.000000  0    1985209.903   -611975.033  -6575142.914
10 0 59319  74982.000000  0    2589135.934  -1233375.111  -6270695.495
10 0 59319  75102.000000  0    3137413.805  -1843481.701  -5856794.982
10 0 59319  75222.000000  0    3620795.960  -2430639.814  -5340583.489
10 0 59319  75342.000000  0    4031339.801  -2983419.050  -4730990.876
10 0 59319  75462.000000  0    4362542.375  -3490836.386  -4038589.796
10 0 59319  75582.000000  0    4609448.503  -3942574.962  -3275422.547
10 0 59319  75702.000000  0    4768732.218  -4329196.685  -2454800.106
10 0 59319  75822.000000  0    4838747.267  -4642342.960  -1591074.099
10 0 59319  75942.000000  0    4819545.133  -4874919.004   -699386.377
10 0 59319  76062.000000  0    4712858.052  -5021256.241    204600.425
10 0 59319  76182.000000  0    4522047.784  -5077247.351   1104984.529
10 0 59319  76302.000000  0    4252021.717  -5040450.895   1985913.726
10 0 59319  76422.000000  0    3909116.160  -4910161.706   2831873.266
10 0 59319  76542.000000  0    3500952.534  -4687447.061   3627966.690
10 0 59319  76662.000000  0    3036268.428  -4375146.105   4360184.626
10 0 59319  76782.000000  0    2524728.821  -3977833.022   5015654.678
10 0 59319  76902.000000  0    1976722.413  -3501745.730   5582868.060
10 0 59319  77022.000000  0    1403147.539  -2954682.133   6051879.937
10 0 59319  77142.000000  0     815192.491  -2345865.681   6414478.733
10 0 59319  77262.000000  0     224115.602  -1685785.257   6664323.537
10 0 59319  77382.000000  0    -358970.519   -986011.625   6797048.661
10 0 59319  77502.000000  0    -923306.823   -258992.637   6810335.864
10 0 59319  77622.000000  0   -1458685.461    482168.621   6703952.054
10 0 59319  77742.000000  0   -1955633.921   1223949.530   6479752.994
10 0 59319  77862.000000  0   -2405582.648   1952653.756   6141652.941
10 0 59319  77982.000000  0   -2801013.759   2654663.653   5695560.629
10 0 59319  78102.000000  0   -3135588.599   3316695.972   5149282.335
10 0 59319  78222.000000  0   -3404252.948   3926055.923   4512391.603
10 0 59319  78342.000000  0   -3603316.564   4470885.547   3796066.790
10 0 59319  78462.000000  0   -3730505.437   4940400.830   3012897.960
10 0 59319  78582.000000  0   -3784985.261   5325112.184   2176665.544
10 0 59319  78702.000000  0   -3767354.843   5617021.432   1302094.576
10 0 59319  78822.000000  0   -3679610.259   5809791.583    404591.103
10 0 59319  78942.000000  0   -3525081.333   5898886.859   -500036.300
10 0 59319  79062.000000  0   -3308339.506   5881675.830  -1395865.482
10 0 59319  79182.000000  0   -3035080.369   5757494.887  -2267151.505
10 0 59319  79302.000000  0   -2711981.915   5527670.226  -3098610.943
10 0 59319  79422.000000  0   -2346546.725   5195501.194  -3875693.020
10 0 59319  79542.000000  0   -1946931.230   4766204.427  -4584835.253
10 0 59319  79662.000000  0   -1521765.409   4246820.743  -5213695.493
10 0 59319  79782.000000  0   -1079969.211   3646090.609  -5751359.095
99
